[{"OBJECT_NAME":"STARLINK-31957","OBJECT_ID":"2024-106E","EPOCH":"2026-03-09T03:26:56.734080","MEAN_MOTION":15.27570718,"ECCENTRICITY":0.00013933,"INCLINATION":43.0018,"RA_OF_ASC_NODE":335.2378,"ARG_OF_PERICENTER":274.7121,"MEAN_ANOMALY":85.3571,"EPHEMERIS_TYPE":0,"CLASSIFICATION_TYPE":"U","NORAD_CAT_ID":59926,"ELEMENT_SET_NO":999,"REV_AT_EPOCH":10049,"BSTAR":-3.6464619e-5,"MEAN_MOTION_DOT":-1.265e-5,"MEAN_MOTION_DDOT":0},{"OBJECT_NAME":"TEVEL2-7","OBJECT_ID":"2025-052AE","EPOCH":"2026-03-09T15:52:01.887744","MEAN_MOTION":15.28414096,"ECCENTRICITY":0.00081048,"INCLINATION":97.4054,"RA_OF_ASC_NODE":324.3041,"ARG_OF_PERICENTER":124.683,"MEAN_ANOMALY":235.5175,"EPHEMERIS_TYPE":0,"CLASSIFICATION_TYPE":"U","NORAD_CAT_ID":63238,"ELEMENT_SET_NO":999,"REV_AT_EPOCH":5480,"BSTAR":0.00069668191,"MEAN_MOTION_DOT":0.00019244,"MEAN_MOTION_DDOT":0}]
