STARLINK-31957          
1 59926U 24106E   26068.14371220 -.00001265  00000+0 -36465-4 0  9999
2 59926  43.0018 335.2378 0001393 274.7121  85.3571 15.27570718100496
TEVEL2-7                
1 63238U 25052AE  26068.66113295  .00019244  00000+0  69668-3 0  9998
2 63238  97.4054 324.3041 0008105 124.6830 235.5175 15.28414096 54803
